STARLINK-2448           
1 48111U 21027V   26068.55167628  .00057247  00000+0  18961-2 0  9990
2 48111  53.1602 155.5804 0001744  65.6838 294.4345 15.30774816272648
TEVEL2-3                
1 63218U 25052J   26068.64540225  .00020365  00000+0  69446-3 0  9991
2 63218  97.3994 324.7775 0004761 105.7353 254.4413 15.30377031 54855
